start=new Date('2022-07-19T00:00:00.000Z').valueOf();
sats=[{"MEAN_ANOMALY":"100.7110","NORAD_CAT_ID":"49159","BSTAR":"0.00009942100000","GP_ID":"208407642","CLASSIFICATION_TYPE":"U","RCS_SIZE":"LARGE","REF_FRAME":"TEME","DECAY_DATE":null,"REV_AT_EPOCH":"4788","RA_OF_ASC_NODE":"47.3283","PERIOD":"96.106","PERIAPSIS":"569.925","SITE":"AFWTR","EPHEMERIS_TYPE":"0","CENTER_NAME":"EARTH","LAUNCH_DATE":"2021-09-14","ECCENTRICITY":"0.00030220","SEMIMAJOR_AXIS":"6950.160","MEAN_MOTION_DOT":"0.00001094","EPOCH":"2022-07-18T21:30:55.195488","TIME_SYSTEM":"UTC","MEAN_MOTION_DDOT":"0.0000000000000","TLE_LINE2":"2 49159  70.0012  47.3283 0003022 259.3709 100.7110 14.98340524 47886","OBJECT_NAME":"STARLINK-3056","OBJECT_TYPE":"PAYLOAD","TLE_LINE1":"1 49159U 21082AF  22199.89647217  .00001094  00000-0  99421-4 0  9991","MEAN_MOTION":"14.98340524","COUNTRY_CODE":"US","MEAN_ELEMENT_THEORY":"SGP4","OBJECT_ID":"2021-082AF","ARG_OF_PERICENTER":"259.3709","FILE":"3517175","INCLINATION":"70.0012","APOAPSIS":"574.126","ELEMENT_SET_NO":"999"},{"REV_AT_EPOCH":"4785","DECAY_DATE":null,"RCS_SIZE":"LARGE","REF_FRAME":"TEME","NORAD_CAT_ID":"49160","MEAN_ANOMALY":"91.5851","CLASSIFICATION_TYPE":"U","GP_ID":"208408893","BSTAR":"-0.00009120900000","LAUNCH_DATE":"2021-09-14","SEMIMAJOR_AXIS":"6950.188","ECCENTRICITY":"0.00031150","CENTER_NAME":"EARTH","MEAN_MOTION_DDOT":"0.0000000000000","TIME_SYSTEM":"UTC","EPOCH":"2022-07-18T21:17:11.434560","MEAN_MOTION_DOT":"-0.00001181","PERIAPSIS":"569.888","PERIOD":"96.107","RA_OF_ASC_NODE":"47.3548","EPHEMERIS_TYPE":"0","SITE":"AFWTR","TLE_LINE1":"1 49160U 21082AG  22199.88693790 -.00001181  00000-0 -91209-4 0  9994","OBJECT_NAME":"STARLINK-3095","OBJECT_TYPE":"PAYLOAD","TLE_LINE2":"2 49160  70.0000  47.3548 0003115 268.4951  91.5851 14.98331565 47853","INCLINATION":"70.0000","FILE":"3517175","ARG_OF_PERICENTER":"268.4951","MEAN_ELEMENT_THEORY":"SGP4","OBJECT_ID":"2021-082AG","ELEMENT_SET_NO":"999","APOAPSIS":"574.218","MEAN_MOTION":"14.98331565","COUNTRY_CODE":"US"},{"OBJECT_TYPE":"PAYLOAD","OBJECT_NAME":"STARLINK-3080","TLE_LINE1":"1 49161U 21082AH  22199.89170147  .00001296  00000-0  11639-3 0  9995","TLE_LINE2":"2 49161  69.9996  47.3379 0003434 255.1120 104.9659 14.98340763 47868","APOAPSIS":"574.411","ELEMENT_SET_NO":"999","OBJECT_ID":"2021-082AH","MEAN_ELEMENT_THEORY":"SGP4","FILE":"3517175","ARG_OF_PERICENTER":"255.1120","INCLINATION":"69.9996","COUNTRY_CODE":"US","MEAN_MOTION":"14.98340763","REF_FRAME":"TEME","RCS_SIZE":"LARGE","DECAY_DATE":null,"REV_AT_EPOCH":"4786","BSTAR":"0.00011639000000","CLASSIFICATION_TYPE":"U","GP_ID":"208409131","MEAN_ANOMALY":"104.9659","NORAD_CAT_ID":"49161","MEAN_MOTION_DOT":"0.00001296","TIME_SYSTEM":"UTC","EPOCH":"2022-07-18T21:24:03.007008","MEAN_MOTION_DDOT":"0.0000000000000","CENTER_NAME":"EARTH","LAUNCH_DATE":"2021-09-14","ECCENTRICITY":"0.00034340","SEMIMAJOR_AXIS":"6950.160","SITE":"AFWTR","EPHEMERIS_TYPE":"0","RA_OF_ASC_NODE":"47.3379","PERIOD":"96.106","PERIAPSIS":"569.638"},{"TLE_LINE1":"1 49162U 21082AJ  22199.88217176 -.00001372  00000-0 -10718-3 0  9993","OBJECT_TYPE":"PAYLOAD","OBJECT_NAME":"STARLINK-3082","TLE_LINE2":"2 49162  70.0002  47.3619 0002941 261.7312  98.3513 14.98328182 47940","APOAPSIS":"574.108","ELEMENT_SET_NO":"999","ARG_OF_PERICENTER":"261.7312","FILE":"3517175","OBJECT_ID":"2021-082AJ","MEAN_ELEMENT_THEORY":"SGP4","INCLINATION":"70.0002","COUNTRY_CODE":"US","MEAN_MOTION":"14.98328182","RCS_SIZE":"LARGE","REF_FRAME":"TEME","REV_AT_EPOCH":"4794","DECAY_DATE":null,"BSTAR":"-0.00010718000000","GP_ID":"208407892","CLASSIFICATION_TYPE":"U","MEAN_ANOMALY":"98.3513","NORAD_CAT_ID":"49162","TIME_SYSTEM":"UTC","EPOCH":"2022-07-18T21:10:19.640064","MEAN_MOTION_DOT":"-0.00001372","MEAN_MOTION_DDOT":"0.0000000000000","CENTER_NAME":"EARTH","LAUNCH_DATE":"2021-09-14","ECCENTRICITY":"0.00029410","SEMIMAJOR_AXIS":"6950.199","EPHEMERIS_TYPE":"0","SITE":"AFWTR","PERIOD":"96.107","RA_OF_ASC_NODE":"47.3619","PERIAPSIS":"570.019"},{"BSTAR":"0.00004092400000","CLASSIFICATION_TYPE":"U","GP_ID":"208408142","MEAN_ANOMALY":"102.3159","NORAD_CAT_ID":"49163","RCS_SIZE":"LARGE","REF_FRAME":"TEME","REV_AT_EPOCH":"4844","DECAY_DATE":null,"EPHEMERIS_TYPE":"0","SITE":"AFWTR","PERIOD":"96.211","RA_OF_ASC_NODE":"27.1271","PERIAPSIS":"574.973","TIME_SYSTEM":"UTC","EPOCH":"2022-07-18T21:05:54.678912","MEAN_MOTION_DOT":"0.00000377","MEAN_MOTION_DDOT":"0.0000000000000","CENTER_NAME":"EARTH","SEMIMAJOR_AXIS":"6955.193","LAUNCH_DATE":"2021-09-14","ECCENTRICITY":"0.00029990","TLE_LINE2":"2 49163  70.0005  27.1271 0002999 257.7663 102.3159 14.96714417 48447","TLE_LINE1":"1 49163U 21082AK  22199.87910508  .00000377  00000-0  40924-4 0  9997","OBJECT_NAME":"STARLINK-3088","OBJECT_TYPE":"PAYLOAD","COUNTRY_CODE":"US","MEAN_MOTION":"14.96714417","APOAPSIS":"579.144","ELEMENT_SET_NO":"999","ARG_OF_PERICENTER":"257.7663","FILE":"3517175","MEAN_ELEMENT_THEORY":"SGP4","OBJECT_ID":"2021-082AK","INCLINATION":"70.0005"},{"TIME_SYSTEM":"UTC","EPOCH":"2022-07-18T20:51:54.050976","MEAN_MOTION_DOT":"0.00000450","MEAN_MOTION_DDOT":"0.0000000000000","CENTER_NAME":"EARTH","LAUNCH_DATE":"2021-09-14","ECCENTRICITY":"0.00030110","SEMIMAJOR_AXIS":"6955.157","EPHEMERIS_TYPE":"0","SITE":"AFWTR","PERIOD":"96.210","RA_OF_ASC_NODE":"27.1386","PERIAPSIS":"574.928","REF_FRAME":"TEME","RCS_SIZE":"LARGE","REV_AT_EPOCH":"4845","DECAY_DATE":null,"BSTAR":"0.00004728000000","CLASSIFICATION_TYPE":"U","GP_ID":"208408394","MEAN_ANOMALY":"95.6697","NORAD_CAT_ID":"49164","APOAPSIS":"579.116","ELEMENT_SET_NO":"999","FILE":"3517175","ARG_OF_PERICENTER":"264.4118","MEAN_ELEMENT_THEORY":"SGP4","OBJECT_ID":"2021-082AL","INCLINATION":"70.0003","COUNTRY_CODE":"US","MEAN_MOTION":"14.96726088","TLE_LINE1":"1 49164U 21082AL  22199.86937559  .00000450  00000-0  47280-4 0  9996","OBJECT_TYPE":"PAYLOAD","OBJECT_NAME":"STARLINK-3106","TLE_LINE2":"2 49164  70.0003  27.1386 0003011 264.4118  95.6697 14.96726088 48458"},{"EPHEMERIS_TYPE":"0","SITE":"AFWTR","PERIAPSIS":"569.846","PERIOD":"96.107","RA_OF_ASC_NODE":"47.3740","MEAN_MOTION_DDOT":"0.0000000000000","EPOCH":"2022-07-18T21:03:27.480096","TIME_SYSTEM":"UTC","MEAN_MOTION_DOT":"-0.00000722","LAUNCH_DATE":"2021-09-14","ECCENTRICITY":"0.00031770","SEMIMAJOR_AXIS":"6950.189","CENTER_NAME":"EARTH","CLASSIFICATION_TYPE":"U","GP_ID":"208408632","BSTAR":"-0.00005268200000","NORAD_CAT_ID":"49165","MEAN_ANOMALY":"100.0900","REV_AT_EPOCH":"4798","DECAY_DATE":null,"REF_FRAME":"TEME","RCS_SIZE":"LARGE","COUNTRY_CODE":"US","MEAN_MOTION":"14.98331261","ELEMENT_SET_NO":"999","APOAPSIS":"574.262","INCLINATION":"70.0003","ARG_OF_PERICENTER":"259.9900","FILE":"3517175","MEAN_ELEMENT_THEORY":"SGP4","OBJECT_ID":"2021-082AM","TLE_LINE2":"2 49165  70.0003  47.3740 0003177 259.9900 100.0900 14.98331261 47980","TLE_LINE1":"1 49165U 21082AM  22199.87740139 -.00000722  00000-0 -52682-4 0  9990","OBJECT_NAME":"STARLINK-3052","OBJECT_TYPE":"PAYLOAD"},{"SITE":"AFWTR","EPHEMERIS_TYPE":"0","PERIAPSIS":"574.814","RA_OF_ASC_NODE":"27.1237","PERIOD":"96.210","MEAN_MOTION_DDOT":"0.0000000000000","MEAN_MOTION_DOT":"0.00001933","TIME_SYSTEM":"UTC","EPOCH":"2022-07-18T20:58:55.331328","LAUNCH_DATE":"2021-09-14","SEMIMAJOR_AXIS":"6955.156","ECCENTRICITY":"0.00031730","CENTER_NAME":"EARTH","CLASSIFICATION_TYPE":"U","GP_ID":"208407393","BSTAR":"0.00017682000000","NORAD_CAT_ID":"49166","MEAN_ANOMALY":"102.0355","REV_AT_EPOCH":"4848","DECAY_DATE":null,"RCS_SIZE":"LARGE","REF_FRAME":"TEME","COUNTRY_CODE":"US","MEAN_MOTION":"14.96726561","ELEMENT_SET_NO":"999","APOAPSIS":"579.228","INCLINATION":"70.0014","OBJECT_ID":"2021-082AN","MEAN_ELEMENT_THEORY":"SGP4","FILE":"3517175","ARG_OF_PERICENTER":"258.0447","TLE_LINE2":"2 49166  70.0014  27.1237 0003173 258.0447 102.0355 14.96726561 48483","OBJECT_NAME":"STARLINK-3089","OBJECT_TYPE":"PAYLOAD","TLE_LINE1":"1 49166U 21082AN  22199.87425152  .00001933  00000-0  17682-3 0  9999"},{"EPHEMERIS_TYPE":"0","SITE":"AFWTR","PERIOD":"96.107","RA_OF_ASC_NODE":"47.3907","PERIAPSIS":"569.834","TIME_SYSTEM":"UTC","EPOCH":"2022-07-18T20:56:35.320128","MEAN_MOTION_DOT":"0.00001292","MEAN_MOTION_DDOT":"0.0000000000000","CENTER_NAME":"EARTH","LAUNCH_DATE":"2021-09-14","SEMIMAJOR_AXIS":"6950.201","ECCENTRICITY":"0.00032120","BSTAR":"0.00011610000000","CLASSIFICATION_TYPE":"U","GP_ID":"208407643","MEAN_ANOMALY":"102.7729","NORAD_CAT_ID":"49167","REF_FRAME":"TEME","RCS_SIZE":"LARGE","DECAY_DATE":null,"REV_AT_EPOCH":"4798","COUNTRY_CODE":"US","MEAN_MOTION":"14.98327239","APOAPSIS":"574.299","ELEMENT_SET_NO":"999","FILE":"3517175","ARG_OF_PERICENTER":"257.3071","OBJECT_ID":"2021-082AP","MEAN_ELEMENT_THEORY":"SGP4","INCLINATION":"69.9997","TLE_LINE2":"2 49167  69.9997  47.3907 0003212 257.3071 102.7729 14.98327239 47985","TLE_LINE1":"1 49167U 21082AP  22199.87263102  .00001292  00000-0  11610-3 0  9998","OBJECT_NAME":"STARLINK-3054","OBJECT_TYPE":"PAYLOAD"},{"ARG_OF_PERICENTER":"253.1600","FILE":"3517175","OBJECT_ID":"2021-082AQ","MEAN_ELEMENT_THEORY":"SGP4","INCLINATION":"69.9992","APOAPSIS":"579.320","ELEMENT_SET_NO":"999","MEAN_MOTION":"14.96721224","COUNTRY_CODE":"US","TLE_LINE1":"1 49168U 21082AQ  22199.85964769  .00000742  00000-0  72827-4 0  9991","OBJECT_NAME":"STARLINK-3101","OBJECT_TYPE":"PAYLOAD","TLE_LINE2":"2 49168  69.9992  27.1683 0003282 253.1600 106.9199 14.96721224 48480","CENTER_NAME":"EARTH","LAUNCH_DATE":"2021-09-14","SEMIMAJOR_AXIS":"6955.172","ECCENTRICITY":"0.00032820","EPOCH":"2022-07-18T20:37:53.560416","TIME_SYSTEM":"UTC","MEAN_MOTION_DOT":"0.00000742","MEAN_MOTION_DDOT":"0.0000000000000","PERIOD":"96.210","RA_OF_ASC_NODE":"27.1683","PERIAPSIS":"574.755","EPHEMERIS_TYPE":"0","SITE":"AFWTR","RCS_SIZE":"LARGE","REF_FRAME":"TEME","DECAY_DATE":null,"REV_AT_EPOCH":"4848","MEAN_ANOMALY":"106.9199","NORAD_CAT_ID":"49168","BSTAR":"0.00007282700000","CLASSIFICATION_TYPE":"U","GP_ID":"208408894"}];
